{
    "links": {
        "self": "http://www.neowsapp.com/rest/v1/neo/3843354?api_key=iIulBulltgU6a56xZRHN4H3l9WmuAYTsLGpBGhQ2"
    },
    "id": "3843354",
    "neo_reference_id": "3843354",
    "name": "(2019 OX)",
    "designation": "2019 OX",
    "nasa_jpl_url": "http://ssd.jpl.nasa.gov/sbdb.cgi?sstr=3843354",
    "absolute_magnitude_h": 24.0,
    "estimated_diameter": {
        "kilometers": {
            "estimated_diameter_min": 0.0421264611,
            "estimated_diameter_max": 0.0941976306
        },
        "meters": {
            "estimated_diameter_min": 42.1264610556,
            "estimated_diameter_max": 94.1976305719
        },
        "miles": {
            "estimated_diameter_min": 0.0261761612,
            "estimated_diameter_max": 0.0585316759
        },
        "feet": {
            "estimated_diameter_min": 138.2101784897,
            "estimated_diameter_max": 309.0473542854
        }
    },
    "is_potentially_hazardous_asteroid": false,
    "close_approach_data": [
        {
            "close_approach_date": "2019-07-30",
            "close_approach_date_full": "2019-Jul-30 15:50",
            "epoch_date_close_approach": 1564501800000,
            "relative_velocity": {
                "kilometers_per_second": "15.2155118061",
                "kilometers_per_hour": "54775.842502",
                "miles_per_hour": "34035.5783590899"
            },
            "miss_distance": {
                "astronomical": "0.0962144301",
                "lunar": "37.4274133089",
                "kilometers": "14393473.806223887",
                "miles": "8943689.8987761606"
            },
            "orbiting_body": "Earth"
        },
        {
            "close_approach_date": "2020-01-10",
            "close_approach_date_full": "2020-Jan-10 19:48",
            "epoch_date_close_approach": 1578685680000,
            "relative_velocity": {
                "kilometers_per_second": "13.9877111863",
                "kilometers_per_hour": "50355.7602708431",
                "miles_per_hour": "31289.1111527358"
            },
            "miss_distance": {
                "astronomical": "0.3145877258",
                "lunar": "122.3746253362",
                "kilometers": "47061653.707824046",
                "miles": "29242755.6094459948"
            },
            "orbiting_body": "Earth"
        }
    ],
    "orbital_data": {
        "orbit_id": "3",
        "orbit_determination_date": "2019-10-14 05:44:54",
        "first_observation_date": "2019-07-25",
        "last_observation_date": "2019-08-01",
        "data_arc_in_days": 7,
        "observations_used": 23,
        "orbit_uncertainty": "9",
        "minimum_orbit_intersection": ".096135",
        "jupiter_tisserand_invariant": "4.799",
        "epoch_osculation": "2458690.5",
        "eccentricity": ".287519600062228",
        "semi_major_axis": "1.32247866258564",
        "inclination": "26.53165547174961",
        "ascending_node_longitude": "301.7534096260298",
        "orbital_period": "555.4966412710978",
        "perihelion_distance": ".9422401264281863",
        "perihelion_argument": "74.57648358747825",
        "aphelion_distance": "1.702717198743093",
        "perihelion_time": "2458758.082721310409",
        "mean_anomaly": "316.2017519744577",
        "mean_motion": ".6480687249093735",
        "equinox": "J2000",
        "orbit_class": {
            "orbit_class_type": "APO",
            "orbit_class_description": "Near-Earth asteroid orbits which cross the Earth’s orbit similar to that of 1862 Apollo",
            "orbit_class_range": "a (semi-major axis) > 1.0 AU; q (perihelion) < 1.017 AU"
        }
    },
    "is_sentry_object": false
}